id,parent,address,pname,cityname,type,typecode,shopinfo,childtype,adname,name,location,tel,lng,lat
B021F01A81,[],黄河十一路,山东省,滨州市,风景名胜;公园广场;公园,110101,2,[],滨城区,中海公园,"117.965477,37.394483",[],117.965477,37.394483
B0FFGWNU2J,[],黄河十二路820号,山东省,滨州市,风景名胜;公园广场;城市广场,110105,2,[],滨城区,滨州市民健身广场,"117.977283,37.403112",[],117.977283,37.403112
B0FFLD6R6S,[],中海北路116号,山东省,滨州市,风景名胜;风景名胜;风景名胜,110200,2,[],滨城区,中海胜景,"117.949552,37.396715",[],117.949552,37.396715
B0FFH5NXRJ,[],魏集镇桑王路与同韩路路口往东230米,山东省,滨州市,风景名胜;风景名胜;国家级景点,110202,2,[],惠民县,魏集古村落(暂停开放),"117.760215,37.299470",0543-2133666;0543-2133000,117.760215,37.29947
B021F03N02,[],北镇街道黄河二路渤海五路交叉口西北角,山东省,滨州市,风景名胜;公园广场;城市广场,110105,2,[],滨城区,五四广场,"118.028761,37.372423",[],118.028761,37.372423
B0G3F5KM94,[],市东街道渤海九路与北外环路交叉口东南角,山东省,滨州市,风景名胜;公园广场;水族馆,110104,2,[],滨城区,滨州海底世界,"118.000854,37.433978",0543-7080666;0543-7080777,118.000854,37.433978
B021F03MDB,[],黄河二路551号,山东省,滨州市,风景名胜;公园广场;公园,110101,2,[],滨城区,彩虹湖,"117.984332,37.369602",[],117.984332,37.369602
B0FFG9W81H,[],杜店街道黄河五路391-7号正西方向140米,山东省,滨州市,风景名胜;公园广场;公园,110101,2,[],滨城区,新立河健康主题公园,"117.980121,37.386376",[],117.980121,37.386376
B0FFJRSZT3,[],白鹭湖湿地公园(渤海一路东),山东省,滨州市,风景名胜;公园广场;公园,110101,2,[],滨城区,白鹭湖湿地公园,"118.049973,37.415378",[],118.049973,37.415378
B0I2CCCKF7,[],崇德七大道应用技术研究院南,山东省,德州市,风景名胜;公园广场;公园,110101,2,[],德城区,德州欢乐花谷,"116.443577,37.423008",[],116.443577,37.423008
B0FFHZXTB5,[],黄河涯镇果子李村,山东省,德州市,风景名胜;公园广场;植物园,110103,2,[],德城区,德州动植物园,"116.357809,37.385181",[],116.357809,37.385181
B021602WT5,[],长河街道长河大道(蔚来城对面),山东省,德州市,风景名胜;公园广场;公园,110101,2,[],德城区,长河公园,"116.346267,37.446140",[],116.346267,37.44614
B02160PGCO,[],东风东路附近,山东省,德州市,风景名胜;风景名胜;国家级景点,110202,2,[],德城区,减河国家湿地公园,"116.387972,37.415690",[],116.387972,37.41569
B02160P7MV,[],德州市开发区德州经济技术开发区体育街南首1号,山东省,德州市,风景名胜;风景名胜;国家级景点,110202,2,[],德城区,董子园风景区(暂停开放),"116.374644,37.439075",0534-2585011,116.374644,37.439075
B0FFG8OFFB,[],文化路,山东省,德州市,风景名胜;公园广场;城市广场,110105,2,[],德城区,德州市城市中心广场,"116.310776,37.448219",[],116.310776,37.448219
B0FFFWZP6T,[],四女寺镇槐荫路,山东省,德州市,风景名胜;风景名胜;风景名胜,110200,2,[],武城县,四女寺风景区,"116.239287,37.353744",[],116.239287,37.353744
B0FFF05QMX,[],德州市开发区经济开发区晶华大道一号,山东省,德州市,风景名胜;风景名胜;寺庙道观,110205,2,[],德城区,永庆寺,"116.376586,37.420423",[],116.376586,37.420423
B0HKACLR8L,[],广川大道与天衢东路交叉口东北60米,山东省,德州市,风景名胜;公园广场;公园,110101,2,[],德城区,崇德公园,"116.346274,37.454080",[],116.346274,37.45408
B02160PS57,[],日月坛微排大厦1层,山东省,德州市,风景名胜;风景名胜;国家级景点,110202,2,[],德城区,中国太阳谷,"116.395273,37.424965",0534-5089203;0534-5088888,116.395273,37.424965
B0IG2CAE5F,[],莱阳路以南,山东省,东营市,风景名胜;公园广场;公园,110101,2,[],东营区,东营区体育公园,"118.582167,37.463195",[],118.582167,37.463195
B022201ZJH,[],南一路与登州路交叉路口,山东省,东营市,风景名胜;公园广场;公园,110101,2,[],东营区,清风湖公园,"118.682761,37.414491",0546-6089181,118.682761,37.414491
B0FFFDYRYF,[],园博路与嘉博路交汇处,山东省,东营市,风景名胜;公园广场;公园,110101,2,[],垦利区,园博园,"118.677142,37.502651",0546-7766908,118.677142,37.502651
B02220O24T,[],广利河以南、东青高速以西、南二路以北,山东省,东营市,风景名胜;公园广场;动物园,110102,2,[],东营区,黄河三角洲动物园,"118.596803,37.419974",0546-8631999;0546-8372666,118.596803,37.419974
B02220NV6N,[],北一路,山东省,东营市,风景名胜;公园广场;公园,110101,2,[],东营区,体育公园,"118.524701,37.460146",[],118.524701,37.460146
B0HAKLK0FX,[],金洲路与金河路交叉口北300米,山东省,东营市,风景名胜;公园广场;水族馆,110104,2,[],东营区,万达广场公园,"118.677158,37.432687",[],118.677158,37.432687
B0FFKYZ36S,[],黄河路街道星凯海纳城对面,山东省,东营市,风景名胜;公园广场;公园,110101,2,[],东营区,耿井公园,"118.532353,37.436721",[],118.532353,37.436721
B022200229,[],胜北体育馆旁,山东省,东营市,风景名胜;公园广场;公园,110101,2,[],东营区,胜利油田钻井公园,"118.516564,37.525063",[],118.516564,37.525063
B022200FA4,[],东城街道府前大街92号,山东省,东营市,风景名胜;公园广场;城市广场,110105,2,[],东营区,东营新世纪广场,"118.674646,37.431863",[],118.674646,37.431863
B0FFHSB6W4,[],登州路与淮河路交叉口东北240米,山东省,东营市,风景名胜;公园广场;公园,110101,2,[],东营区,秋月湖公园,"118.688445,37.449221",[],118.688445,37.449221
B0HGVYN9LO,[],曹州路青年湖公园北侧约120米,山东省,菏泽市,风景名胜;公园广场;公园,110101,2,[],牡丹区,老城曹州,"115.446349,35.245854",0530-7911111,115.446349,35.245854
B021205PHN,[],人民路1000号,山东省,菏泽市,风景名胜;风景名胜;风景名胜,110200,2,[],牡丹区,曹州牡丹园,"115.497379,35.279915",0530-5640188;0530-5640177,115.497379,35.279915
B021202782,[],中华路1169号,山东省,菏泽市,风景名胜;公园广场;公园,110101,2,[],牡丹区,天香公园,"115.476401,35.235636",[],115.476401,35.235636
B0IG5HK82S,[],京九铁路与万福河交汇处,山东省,菏泽市,风景名胜;公园广场;公园,110101,2,[],牡丹区,人工沙滩主题公园,"115.520456,35.176020",[],115.520456,35.17602
B0FFI55V3M,[],国花大道,山东省,菏泽市,风景名胜;公园广场;公园,110101,2,[],牡丹区,七里河湿地公园,"115.503454,35.313854",[],115.503454,35.313854
B0GKJHXXX0,[],人民路与中华路交叉口北80米,山东省,菏泽市,风景名胜;公园广场;公园,110101,2,[],牡丹区,菏泽海关法治公园,"115.495242,35.233154",[],115.495242,35.233154
B0FFHNF8VM,[],珠江东路1777号,山东省,菏泽市,风景名胜;风景名胜;风景名胜,110200,2,[],定陶区,鲁西南记忆,"115.539071,35.177291",0530-2291666,115.539071,35.177291
B0FFKVXD57,[],太原路186号对面,山东省,菏泽市,风景名胜;公园广场;公园,110101,2,[],牡丹区,赵王河公园儿童游乐区,"115.472719,35.229563",[],115.472719,35.229563
B0FFJ09WJU,B0FFG714ZL,中华路紫金国际广场负1层,山东省,菏泽市,风景名胜;公园广场;水族馆,110104,2,202,牡丹区,菏泽三鲨海洋世界,"115.499956,35.230573",0530-7755502;0530-7755503,115.499956,35.230573
B021205897,[],解放大街和迎宾街交汇处北90米,山东省,菏泽市,风景名胜;公园广场;公园,110101,2,[],牡丹区,儿童乐园,"115.449724,35.240389",[],115.449724,35.240389
B021306TJ7,[],经十一路18号,山东省,济南市,风景名胜;风景名胜;国家级景点,110202,2,[],历下区,千佛山风景名胜区,"117.036092,36.639302",0531-82662340,117.036092,36.639302
B021300C2E,[],花园路120号,山东省,济南市,风景名胜;公园广场;城市广场,110105,2,[],历城区,洪楼广场,"117.066999,36.685102",[],117.066999,36.685102
B0FFIOSQ2K,[],明湖路271号,山东省,济南市,风景名胜;风景名胜;国家级景点,110202,2,[],历下区,天下第一泉,"117.015811,36.661079",[],117.015811,36.661079
B021306MAD,B0FFFX1OYU,锦绣川乡锦绣川水库南3公里54号,山东省,济南市,风景名胜;风景名胜;国家级景点,110202,2,601,历城区,红叶谷景区(暂停开放),"117.169781,36.485029",0531-82818666,117.169781,36.485029
B02130YNQF,[],佛峪沟附近,山东省,济南市,风景名胜;风景名胜;风景名胜,110200,2,[],历下区,龙洞风景区,"117.099376,36.601566",[],117.099376,36.601566
B0HBKZOE4A,[],华山镇荷花路,山东省,济南市,风景名胜;公园广场;公园,110101,2,[],历城区,华山风景区,"117.073396,36.729314",[],117.073396,36.729314
B0FFFL2XR7,[],旅游路中段(近鱼翅皇宫大酒店),山东省,济南市,风景名胜;风景名胜;国家级景点,110202,2,[],历下区,大千佛山景区佛慧山,"117.047873,36.628538",[],117.047873,36.628538
B0FFFDOWEJ,[],港沟伙路村东南山峪,山东省,济南市,风景名胜;风景名胜;寺庙道观,110205,2,[],历城区,淌豆寺(暂停开放),"117.221272,36.621788",[],117.221272,36.621788
B0FFG9VEUR,[],青岛路与腊山河西路交汇处东南角,山东省,济南市,风景名胜;风景名胜;风景名胜|购物服务;购物相关场所;购物相关场所,110200|060000,2,[],槐荫区,印象济南・泉世界,"116.908811,36.677561",0531-81602998;4000902767,116.908811,36.677561
B021307FPR,[],还乡店路25号,山东省,济南市,风景名胜;公园广场;公园,110101,2,[],历城区,还乡店公园,"117.076566,36.714065",[],117.076566,36.714065
B0FFI6ZICM,[],244省道线西,山东省,济宁市,风景名胜;风景名胜;风景名胜,110200,2,[],嘉祥县,东方左岸・假日小镇,"116.313988,35.313978",0537-6537777,116.313988,35.313978
B0IBUCUBHX,[],接庄街道南集一村,山东省,济宁市,风景名胜;公园广场;城市广场,110105,2,[],任城区,南集一村广场,"116.739532,35.374811",[],116.739532,35.374811
B0FFFGTQL0,[],古槐路37-1附近,山东省,济宁市,风景名胜;风景名胜;风景名胜,110200,2,[],任城区,潘家大楼,"116.580745,35.413585",[],116.580745,35.413585
B0FFF35QYL,[],曲阜明故城,山东省,济宁市,风景名胜;风景名胜;国家级景点|风景名胜;风景名胜;世界遗产,110202|110201,2,[],曲阜市,曲阜三孔景区,"116.994196,35.608196",0537-4486500;0537-4712172,116.994196,35.608196
B0GRTOGG1S,[],(胡营社区),山东省,济宁市,风景名胜;风景名胜;风景名胜,110200,2,[],任城区,道玄堂,"116.508358,35.408291",[],116.508358,35.408291
B0FFKG20P1,[],兴平路与兴阳路交叉口南480米,山东省,济宁市,风景名胜;公园广场;城市广场,110105,2,[],邹城市,太平广场,"116.840358,35.332765",[],116.840358,35.332765
B02190XH2Y,[],纸坊镇武翟山村北,山东省,济宁市,风景名胜;风景名胜;省级景点,110203,2,[],嘉祥县,武氏祠景区,"116.348098,35.282849",0537-6611899,116.348098,35.282849
B02190B7BX,[],小闸口上河西街19号,山东省,济宁市,风景名胜;风景名胜;回教寺,110207,2,[],任城区,济宁东大寺(暂停开放),"116.587651,35.403293",0537-2266315,116.587651,35.403293
B0FFH3YA49,[],济安桥南路,山东省,济宁市,风景名胜;风景名胜;寺庙道观,110205,2,[],任城区,大悲庵,"116.570349,35.402740",[],116.570349,35.40274
B0IASUM4PW,[],圣贤路与火炬路交叉口西北角,山东省,济宁市,风景名胜;公园广场;公园,110101,2,[],任城区,口袋公园,"116.614333,35.350458",[],116.614333,35.350458
B0FFGCGMK7,B0FFHFHH7N,环球路,山东省,聊城市,风景名胜;风景名胜;国家级景点,110202,2,301,东阿县,东阿阿胶城,"116.239923,36.345901",0635-7105896,116.239923,36.345901
B027B0ORD2,B0FFHFHH7N,环球路附近,山东省,聊城市,风景名胜;风景名胜;国家级景点,110202,2,301,东阿县,东阿药王山,"116.242790,36.345618",0635-7105890,116.24279,36.345618
B0FFIWVK22,[],兴隆村附近,山东省,聊城市,风景名胜;公园广场;公园,110101,2,[],东阿县,位山黄河公园,"116.145962,36.280097",18365720729,116.145962,36.280097
B0FFJ16HPH,[],徒骇河滨河大道,山东省,聊城市,风景名胜;公园广场;公园,110101,2,[],东昌府区,徒骇河橡胶坝公园,"116.033222,36.473010",[],116.033222,36.47301
B0I12Z8L7Q,[],楼南大街5号,山东省,聊城市,风景名胜;风景名胜;风景名胜,110200,2,[],东昌府区,状元楼,"115.969706,36.442954",[],115.969706,36.442954
B027B0OQ64,B0FFHFHH7N,曹植公园院内,山东省,聊城市,风景名胜;风景名胜;风景名胜,110200,2,301,东阿县,东阿阿胶养生文化苑,"116.239238,36.346201",[],116.239238,36.346201
B0I12A8KVB,[],楼西大街37号,山东省,聊城市,风景名胜;风景名胜;风景名胜,110200,2,[],东昌府区,进士坊,"115.966338,36.444209",[],115.966338,36.444209
B0FFFXBCAI,[],振兴街与莘亭路交汇处,山东省,聊城市,风景名胜;公园广场;公园,110101,2,[],莘县,燕塔公园,"115.672237,36.236292",[],115.672237,36.236292
B0H1LAGBN5,[],财干路与柳园路东北角,山东省,聊城市,风景名胜;公园广场;公园,110101,2,[],东昌府区,口袋公园,"115.988899,36.487523",[],115.988899,36.487523
B0I2XSYWZQ,[],湄河港湾星美城市广场11号楼,山东省,聊城市,风景名胜;公园广场;公园,110101,2,[],东昌府区,星途机车公园,"116.061813,36.459188",[],116.061813,36.459188
B0FFF3U2BE,[],滨河大道书法广场,山东省,临沂市,风景名胜;风景名胜;风景名胜,110200,2,[],兰山区,临沂园博园,"118.322209,35.106615",[],118.322209,35.106615
B0FFGG3K28,[],滨河东路与龙园停车场交汇,山东省,临沂市,风景名胜;风景名胜;风景名胜,110200,2,[],河东区,临沂龙园旅游区(暂停开放),"118.467684,35.316582",0539-2570555;0539-7388999,118.467684,35.316582
B0FFG64EA1,[],李公河路,山东省,临沂市,风景名胜;公园广场;公园,110101,2,[],河东区,李公河湿地公园,"118.426462,35.007782",[],118.426462,35.007782
B0FFG9TXHT,[],湖北路,山东省,临沂市,风景名胜;公园广场;公园,110101,2,[],罗庄区,龙湖公园,"118.241681,35.003787",[],118.241681,35.003787
B0HACCWOMW,[],[],山东省,临沂市,风景名胜;公园广场;公园,110101,2,[],罗庄区,罗庄区银凤湖公园,"118.307143,34.978472",[],118.307143,34.978472
B0IAH990AK,[],水田路与琅琊王路交叉口西20米,山东省,临沂市,风景名胜;风景名胜;风景名胜,110200,2,[],兰山区,盲人算卦,"118.299714,35.072631",13370668785,118.299714,35.072631
B0FFHRXKR1,B0FFIKRTZW,十里坊商业街,山东省,临沂市,风景名胜;公园广场;城市广场,110105,2,324,罗庄区,十里堡孔子文化广场,"118.361257,35.020195",[],118.361257,35.020195
B0I6RUT4F6,[],茶山路与长沙路交汇处东南角,山东省,临沂市,风景名胜;风景名胜;寺庙道观,110205,2,[],兰山区,临沂南坊新区三元宫,"118.327367,35.133825",[],118.327367,35.133825
B0IAFH99KW,[],蒙山大道187号,山东省,临沂市,风景名胜;公园广场;公园,110101,2,[],兰山区,鲁商万科城大鹿公园,"118.312116,35.042093",[],118.312116,35.042093
B021B0BWDK,[],滨河路东150米,山东省,临沂市,风景名胜;风景名胜;省级景点,110203,2,[],兰山区,临沂滨河景区,"118.367706,35.047041",[],118.367706,35.047041
B0214024B5,[],芝泉路2号,山东省,青岛市,风景名胜;风景名胜;寺庙道观,110205,2,[],市南区,青岛湛山寺,"120.364481,36.064978",0532-83862038,120.364481,36.064978
B0FFK8OQLY,[],中韩街道麦岛,山东省,青岛市,风景名胜;风景名胜;风景名胜,110200,2,[],崂山区,小麦岛公园,"120.431045,36.054245",[],120.431045,36.054245
B0214023A3,[],文登路28号,山东省,青岛市,风景名胜;公园广场;公园,110101,2,[],市南区,中山公园,"120.350415,36.064394",0532-82870564,120.350415,36.064394
B0214082FI,[],莱阳路2号,山东省,青岛市,风景名胜;公园广场;水族馆,110104,2,[],市南区,青岛海底世界,"120.336017,36.057075",0532-82892787,120.336017,36.057075
B0HAH6G4QH,[],金湾路6号,山东省,青岛市,风景名胜;风景名胜;风景名胜,110200,2,[],市南区,情人坝,"120.390288,36.052388",[],120.390288,36.052388
B02140YTF1,[],澳门路138号,山东省,青岛市,风景名胜;公园广场;公园,110101,2,[],市南区,海韵园-燕儿岛山公园,"120.405710,36.055267",[],120.40571,36.055267
B021406QHK,[],延安一路102号(近中山公园),山东省,青岛市,风景名胜;公园广场;动物园,110102,2,[],市南区,青岛动物园,"120.349960,36.069562",0532-82872970,120.34996,36.069562
B021401767,[],龙山路16号甲,山东省,青岛市,风景名胜;公园广场;公园,110101,2,[],市南区,信号山公园,"120.331561,36.066446",0532-82798055,120.331561,36.066446
B0FFF3IWZ5,[],浙江路15号(曲阜路路口),山东省,青岛市,风景名胜;风景名胜;教堂,110206,2,[],市南区,天主教青岛教区圣弥厄尔主教座堂天主堂(建设中),"120.320588,36.068143",0532-82865960,120.320588,36.068143
B02140WLH8,[],东海东路60号,山东省,青岛市,风景名胜;公园广场;水族馆,110104,2,[],崂山区,青岛・海昌极地海洋公园,"120.442663,36.069211",0532-85909999;0532-80999777;0532-89091276,120.442663,36.069211
B0FFJJFAYY,[],菏泽路市图书馆北侧,山东省,日照市,风景名胜;公园广场;公园,110101,2,[],东港区,日照体育公园,"119.511314,35.429981",[],119.511314,35.429981
B0FFHBAR9S,[],海曲公园西门对过,山东省,日照市,购物服务;花鸟鱼虫市场;宠物市场|风景名胜;公园广场;水族馆,060502|110104,2,[],东港区,龙腾虎跃水族馆,"119.472761,35.422025",15689623456,119.472761,35.422025
B0FFF3NQ9I,[],太公一路北苗家村,山东省,日照市,风景名胜;公园广场;公园|风景名胜;风景名胜;风景名胜,110101|110200,2,[],东港区,太公岛牡蛎公园,"119.579593,35.439937",13561996280,119.579593,35.439937
B027902P7M,[],碧海路北首,山东省,日照市,风景名胜;风景名胜;国家级景点,110202,2,[],东港区,日照海滨国家森林公园,"119.628206,35.541785",0633-3680998;0633-3680898,119.628206,35.541785
B0FFJD3UW6,[],日照街道罗家城子村西侧东门,山东省,日照市,体育休闲服务;休闲场所;休闲场所|风景名胜;风景名胜;风景名胜,080500|110200,2,[],东港区,月湖山水风景区,"119.422418,35.450130",18906330880,119.422418,35.45013
B0IAUHYN56,[],望海路与金阳路交叉口西80米,山东省,日照市,风景名胜;公园广场;公园,110101,2,[],东港区,金阳公园,"119.450770,35.427539",[],119.45077,35.427539
B027902C1B,[],涛雒镇刘家湾,山东省,日照市,风景名胜;风景名胜;国家级景点,110202,2,[],东港区,刘家湾赶海园,"119.427807,35.282238",0633-2957006,119.427807,35.282238
B0FFL2BL3W,[],国家海洋公园旁(碧海路南),山东省,日照市,风景名胜;风景名胜;风景名胜,110200,2,[],东港区,任家台赶海园,"119.628376,35.510953",15206334172,119.628376,35.510953
B02790P5YN,[],河山镇河山风景区,山东省,日照市,风景名胜;风景名胜;省级景点,110203,2,[],东港区,日照河山风景区,"119.462436,35.531405",0633-2192345,119.462436,35.531405
B0FFF2JG8J,B0279019BC,太公岛一路23号山海天旅游度假区,山东省,日照市,风景名胜;风景名胜;风景名胜,110200,2,301,东港区,李家台赶海园,"119.609755,35.478315",[],119.609755,35.478315
B0FFFDS3H4,[],东岳大街,山东省,泰安市,风景名胜;风景名胜;寺庙道观,110205,2,[],泰山区,岱庙,"117.131309,36.194025",0538-8261038,117.131309,36.194025
B0HRSDRA4T,[],桃花源路西湖西门向北200米,山东省,泰安市,风景名胜;风景名胜;风景名胜|体育休闲服务;体育休闲服务场所;体育休闲服务场所,110200|080000,2,[],岱岳区,泰山秀城(暂停开放),"117.007743,36.215539",[],117.007743,36.215539
B021A0OAJ2,[],通天街65号,山东省,泰安市,风景名胜;风景名胜;风景名胜,110200,2,[],泰山区,老县衙大院,"117.131270,36.189561",[],117.13127,36.189561
B021A024WT,[],青年路与灵山大街交汇处西南侧,山东省,泰安市,风景名胜;公园广场;公园,110101,2,[],泰山区,南湖公园(暂停开放),"117.128054,36.180449",[],117.128054,36.180449
B021A024PR,[],灵山大街与虎山路交叉口(近虎山路),山东省,泰安市,风景名胜;公园广场;公园,110101,2,[],泰山区,东湖公园,"117.138909,36.185941",[],117.138909,36.185941
B0FFF5SO2H,[],胜利路天颐湖南,山东省,泰安市,风景名胜;风景名胜;国家级景点,110202,2,[],岱岳区,泰安太阳部落,"117.122159,36.038185",0538-5366666;0538-5365255,117.122159,36.038185
B0G0UUOO6L,[],泰山立交东南侧、北邻万官大街、东邻盛世路,山东省,泰安市,风景名胜;公园广场;公园,110101,2,[],岱岳区,粥顶山体育公园,"117.056797,36.145612",[],117.056797,36.145612
B021A02DVX,[],胜利路与滨湖路交汇处东侧,山东省,泰安市,风景名胜;风景名胜;风景名胜,110200,2,[],岱岳区,泰山天颐湖旅游度假区(暂停开放),"117.118766,36.057091",4006761239;0538-8569888,117.118766,36.057091
B0FFM9DXT5,[],大河社区服务中心东,山东省,泰安市,风景名胜;公园广场;城市广场,110105,2,[],岱岳区,粥店街道大河社区爱心广场,"117.046212,36.187381",[],117.046212,36.187381
B0HRVXGH9E,[],园丁路,山东省,泰安市,风景名胜;公园广场;公园,110101,2,[],岱岳区,山东科技大学泰安校区(西校区)南门小公园,"117.064216,36.181159",[],117.064216,36.181159
B0FFGC7MCX,[],青岛中路附近,山东省,威海市,风景名胜;风景名胜;国家级景点,110202,2,[],环翠区,韩乐坊,"122.153991,37.428035",[],122.153991,37.428035
B0I10U3MVC,[],一号线路牌顺台阶走北100米,山东省,威海市,风景名胜;风景名胜;观景点,110209,2,[],环翠区,猫头山二号观景台,"122.157128,37.541264",[],122.157128,37.541264
B027700M35,[],统一路120号,山东省,威海市,风景名胜;公园广场;公园,110101,2,[],环翠区,环翠楼公园,"122.108550,37.505154",0631-5205877,122.10855,37.505154
B02770ISI3,[],北环海路178号,山东省,威海市,风景名胜;风景名胜;海滩,110208,2,[],环翠区,威海国际浴场(暂停开放),"122.042007,37.527536",0631-5623885,122.042007,37.527536
B0FFF6BKO3,[],海滨北路101-2号,山东省,威海市,风景名胜;风景名胜;国家级景点,110202,2,[],环翠区,刘公岛风景名胜区,"122.190069,37.504524",0631-5287807;0631-5205128,122.190069,37.504524
B027700J6O,[],丽食盛世家宴海滨中路29号,山东省,威海市,风景名胜;公园广场;公园,110101,2,[],环翠区,威海公园,"122.144823,37.465201",[],122.144823,37.465201
B0HU6S2F5C,[],金线顶路117号,山东省,威海市,风景名胜;公园广场;公园,110101,2,[],环翠区,金线顶公园,"122.141085,37.490369",[],122.141085,37.490369
B0FFH5EDX2,[],羊亭河附近,山东省,威海市,风景名胜;公园广场;公园,110101,2,[],环翠区,羊亭河湿地公园,"122.026902,37.422202",[],122.026902,37.422202
B02770IULT,[],统一路348-2号,山东省,威海市,风景名胜;公园广场;公园,110101,2,[],环翠区,塔山公园,"122.120457,37.491740",[],122.120457,37.49174
B02770IK7I,[],珠海路,山东省,威海市,风景名胜;公园广场;公园|体育休闲服务;体育休闲服务场所;体育休闲服务场所,110101|080000,2,[],环翠区,威海震琳体育休闲公园,"122.104097,37.406129",0631-5998809;0631-3623777,122.104097,37.406129
B02180I2ZU,[],胜利东街(近机关综合办公大楼),山东省,潍坊市,风景名胜;公园广场;城市广场,110105,2,[],奎文区,人民广场,"119.161511,36.702751",0536-8795917,119.161511,36.702751
B02180I2X6,B021817GUJ,胡家牌坊街345号,山东省,潍坊市,风景名胜;风景名胜;风景名胜,110200,2,301,潍城区,潍坊十笏园博物馆(暂停开放),"119.105921,36.715243",0536-8321749,119.105921,36.715243
B02180JG07,[],高新二路,山东省,潍坊市,风景名胜;风景名胜;省级景点,110203,2,[],奎文区,浞河景区,"119.231590,36.706711",[],119.23159,36.706711
B021815YY7,[],三马路138号,山东省,潍坊市,风景名胜;风景名胜;风景名胜,110200,2,[],坊子区,坊茨小镇(暂停开放),"119.161605,36.597964",0536-7665333,119.161605,36.597964
B02180I1IF,[],富亭街杨家埠村东100米,山东省,潍坊市,风景名胜;风景名胜;国家级景点,110202,2,[],寒亭区,中国杨家埠民间艺术大观园,"119.221451,36.758731",0536-2927311,119.221451,36.758731
B02180JXVB,[],北海路与宝通街交叉口,山东省,潍坊市,风景名胜;公园广场;植物园,110103,2,[],奎文区,潍坊植物园,"119.154723,36.682056",0536-8890635,119.154723,36.682056
B021800601,[],青年路29号,山东省,潍坊市,风景名胜;公园广场;公园,110101,2,[],潍城区,潍坊人民公园,"119.108948,36.700303",0536-8322480,119.108948,36.700303
B0FFF9YNDI,[],经济开发区新安路青龙山社区齐鲁酒地与汶川北路交叉口北500米,山东省,潍坊市,风景名胜;风景名胜;国家级景点,110202,2,[],安丘市,齐鲁酒地(暂停开放),"119.210297,36.528315",0536-8025978,119.210297,36.528315
B02180JEP0,[],机场路与宝通西街南200米,山东省,潍坊市,风景名胜;公园广场;公园,110101,2,[],潍城区,白浪绿洲湿地公园,"119.101879,36.650430",[],119.101879,36.65043
B02180IULK,[],望留镇驻地,山东省,潍坊市,风景名胜;风景名胜;风景名胜,110200,2,[],潍城区,浮烟山,"119.010666,36.641372",0536-8139889,119.010666,36.641372
B021701370,[],环山路南山沟1号,山东省,烟台市,风景名胜;公园广场;公园,110101,2,[],芝罘区,南山公园,"121.388688,37.524406",0535-6656934,121.388688,37.524406
B0FFGQJG5L,[],胜利路288号,山东省,烟台市,风景名胜;风景名胜;风景名胜,110200,2,[],芝罘区,所城里大街,"121.398626,37.536545",[],121.398626,37.536545
B021704OCT,[],滨海北路,山东省,烟台市,风景名胜;风景名胜;风景名胜,110200,2,[],芝罘区,月亮湾,"121.433833,37.535053",[],121.433833,37.535053
B0H6LDEN9K,[],鹿鸣小区南区西侧380米,山东省,烟台市,风景名胜;公园广场;公园,110101,2,[],芝罘区,烟台市岱王山公园,"121.433384,37.500758",[],121.433384,37.500758
B021703FPI,[],塔山路36号,山东省,烟台市,风景名胜;风景名胜;国家级景点,110202,2,[],芝罘区,塔山旅游风景区,"121.393106,37.511566",0535-6081182;0535-6622185,121.393106,37.511566
B021704KS7,[],海滨路,山东省,烟台市,风景名胜;风景名胜;国家级景点,110202,2,[],福山区,金沙滩海滨公园,"121.259113,37.573782",0535-6381108;12301,121.259113,37.573782
B0FFF8ZOOG,[],港城东大街15号(港城东大街与海越路交汇处),山东省,烟台市,风景名胜;风景名胜;省级景点|科教文化服务;科技馆;科技馆,110203|140600,2,[],莱山区,山东核电科技馆(暂停开放),"121.491180,37.454752",0535-3877999,121.49118,37.454752
B0FFG2BUQW,[],鱼河西路与官二街交叉口南200米,山东省,烟台市,风景名胜;公园广场;公园,110101,2,[],牟平区,鱼鸟河公园,"121.564040,37.396345",13133933994,121.56404,37.396345
B021703SDJ,[],福临夼村,山东省,烟台市,风景名胜;风景名胜;寺庙道观,110205,2,[],芝罘区,竹林寺,"121.420784,37.500515",15005356000,121.420784,37.500515
B02170SGYE,[],滨海中路184号,山东省,烟台市,风景名胜;风景名胜;风景名胜,110200,2,[],莱山区,黄海明珠,"121.454698,37.491623",0535-6888993,121.454698,37.491623
B0ID973V30,[],光明大道世纪凤凰城北侧约250米,山东省,枣庄市,风景名胜;公园广场;公园广场,110100,2,[],薛城区,枣庄高新区人才公园,"117.340706,34.806928",[],117.340706,34.806928
B0H2MZ0UUF,[],兴仁街道龙谭御园小区,山东省,枣庄市,风景名胜;公园广场;公园,110101,2,[],薛城区,龙潭公园,"117.303413,34.799099",[],117.303413,34.799099
B02780275F,[],光明中路12号,山东省,枣庄市,风景名胜;公园广场;城市广场,110105,2,[],市中区,光明广场,"117.565517,34.840732",[],117.565517,34.840732
B027803D42,[],桃花路1号,山东省,枣庄市,风景名胜;风景名胜;国家级景点,110202,2,[],峄城区,冠世榴园风景区(暂停开放),"117.542517,34.779166",0632-5760199;0632-5760999,117.542517,34.779166
B027802B5D,[],振兴中路63号,山东省,枣庄市,体育休闲服务;休闲场所;游乐场|风景名胜;风景名胜;风景名胜,080501|110200,2,[],市中区,儿童乐园,"117.562187,34.845016",0632-3313662,117.562187,34.845016
B0FFMCJTS7,[],光明大道与欣兴路交叉口南240米,山东省,枣庄市,风景名胜;风景名胜;风景名胜,110200,2,[],薛城区,杨峪风景区,"117.417874,34.818291",[],117.417874,34.818291
B02780RF5E,[],长江东路段(舜耕中学),山东省,枣庄市,风景名胜;公园广场;城市广场,110105,2,[],薛城区,奚仲广场,"117.285894,34.780103",[],117.285894,34.780103
B0278052FN,[],文化西路,山东省,枣庄市,风景名胜;风景名胜;风景名胜,110200,2,[],市中区,东湖公园,"117.531722,34.851625",[],117.531722,34.851625
B0FFH270OC,[],光明大道3656号,山东省,枣庄市,风景名胜;公园广场;城市广场,110105,2,[],薛城区,太阳广场,"117.312575,34.804244",[],117.312575,34.804244
B0HG7HKV28,[],榴园镇贾泉村西,山东省,枣庄市,风景名胜;风景名胜;风景名胜,110200,2,[],峄城区,榴宝庄园,"117.467391,34.770311",0632-7050688,117.467391,34.770311
B0FFL1QPQP,[],尚军路,山东省,淄博市,风景名胜;风景名胜;风景名胜,110200,2,[],张店区,花山公园,"118.119490,36.824708",[],118.11949,36.824708
B0FFFAP9JY,[],湖田镇309国道旁,山东省,淄博市,风景名胜;风景名胜;风景名胜,110200,2,[],张店区,玉黛湖生态乡村庄园,"118.145252,36.805090",0533-2070788,118.145252,36.80509
B021500B4F,[],共青团东路30号,山东省,淄博市,风景名胜;公园广场;公园,110101,2,[],张店区,张店儿童公园,"118.071556,36.801765",[],118.071556,36.801765
B0FFG295BU,[],长周路附近,山东省,淄博市,风景名胜;风景名胜;风景名胜|体育休闲服务;体育休闲服务场所;体育休闲服务场所,110200|080000,2,[],周村区,文昌湖旅游度假区,"117.876879,36.694007",[],117.876879,36.694007
B021504LJ4,[],世纪路28号(王舍路与世纪路交叉路口),山东省,淄博市,风景名胜;公园广场;植物园,110103,2,[],张店区,淄博市植物园,"118.029484,36.792359",[],118.029484,36.792359
B021504JNV,[],新建中路1号,山东省,淄博市,风景名胜;风景名胜;国家级景点,110202,2,[],周村区,周村古商城,"117.840993,36.798380",0533-6436166;0533-6430009,117.840993,36.79838
B0FFH89CNX,[],和平路,山东省,淄博市,风景名胜;公园广场;公园,110101,2,[],张店区,孝妇河湿地公园,"117.981230,36.790452",0533-2801992,117.98123,36.790452
B02150RD9V,[],卫固镇太平村,山东省,淄博市,风景名胜;风景名胜;风景名胜,110200,2,[],张店区,黑铁山风景区,"118.164113,36.842767",[],118.164113,36.842767
B0FFGPN0SX,[],东郊6公里309国道北侧,山东省,淄博市,风景名胜;风景名胜;省级景点,110203,2,[],张店区,玉黛湖风景区,"118.146248,36.808523",0533-2070788,118.146248,36.808523
B021503YM3,[],杏园街道三零九国道湖田路段玉黛湖风景区东,山东省,淄博市,风景名胜;公园广场;动物园,110102,2,[],张店区,淄博动物园,"118.150432,36.809080",0533-2070770;0533-2070776,118.150432,36.80908
